#aV2009  8 29  0  0   .00000000      96 DD+AD WGS84 FIT  NGA
## 1546 518400.00000000   900.00000000 55072  .0000000000000
+   32     1  2  3  4  5  6  7  8  9 10 11 12 13 14 15 16 17
+         18 19 20 21 22 23 24 25 26 27 28 29 30 31 32  0  0
+          0  0  0  0  0  0  0  0  0  0  0  0  0  0  0  0  0
+          0  0  0  0  0  0  0  0  0  0  0  0  0  0  0  0  0
+          0  0  0  0  0  0  0  0  0  0  0  0  0  0  0  0  0
++         0  0  0  0  0  0  0  0  0  0  0  0  0  0  0  0  0
++         0  0  0  0  0  0  0  0  0  0  0  0  0  0  0  0  0
++         0  0  0  0  0  0  0  0  0  0  0  0  0  0  0  0  0
++         0  0  0  0  0  0  0  0  0  0  0  0  0  0  0  0  0
++         0  0  0  0  0  0  0  0  0  0  0  0  0  0  0  0  0
%c cc cc ccc ccc cccc cccc cccc cccc ccccc ccccc ccccc ccccc
%c cc cc ccc ccc cccc cccc cccc cccc ccccc ccccc ccccc ccccc
%f  0.0000000  0.000000000  0.00000000000  0.000000000000000
%f  0.0000000  0.000000000  0.00000000000  0.000000000000000
%i    0    0    0    0      0      0      0      0         0
%i    0    0    0    0      0      0      0      0         0
/*      NGA, ST. LOUIS,MO.                                  
/*   EPHEMERIS COMPUTED FROM  3 DAYS OF DATA                
/* CCCCCCCCCCCCCCCCCCCCCCCCCCCCCCCCCCCCCCCCCCCCCCCCCCCCCCCCC
/* CCCCCCCCCCCCCCCCCCCCCCCCCCCCCCCCCCCCCCCCCCCCCCCCCCCCCCCCC
*  2009  8 29  6 45   .00000000                                                 
P  1  -7435.918018 -16399.259375 -19658.445984    -58.031417                    
V  1  24068.700952   5715.428518 -13841.289824       .005990                    
P  2  21754.422960  -9874.572727 -11218.020909    168.441861                    
V  2  -7958.033920  12346.079079 -26896.812443       .026044                    
P  3 -13732.684329   8085.057233  20892.389388    439.934768                    
V  3 -10079.047786 -25554.861860   3568.276976       .049635                    
P  4  19580.097150   -169.454613 -18245.679879   -240.978182                    
V  4 -15477.720088  16850.430865 -16528.618207      -.171465                    
P  5  25923.791204   4862.838591   3658.866852   -101.027530                    
V  5   3765.699276   3859.952395 -31255.760857       .141247                    
P  6 -15476.633551   3607.139929  21469.219703    228.866571                    
V  6  -7497.789343 -25865.405827   -984.787538       .076660                    
P  7    712.126601  17886.321897  19551.785972     12.507712                    
V  7 -18881.460407  16276.978556 -14326.554367      -.007142                    
P  8  12403.426028   8400.106733  21937.207639   -218.874074                    
V  8 -21266.071242  17943.221339   4641.943459      -.018112                    
P  9  13929.337635 -21484.320943  -7589.749698     74.541626                    
V  9   7621.393591  -4776.491852  30217.949767       .020773                    
P 10  22597.562617  -2947.988985  13753.387629    -22.316603                    
V 10  16138.897502   7367.265928 -24314.821017      -.009003                    
P 11  -9234.772187  23795.213749  -6868.190614    -17.198906                    
V 11  -8984.605908   4395.011007  28570.947530      -.017398                    
P 12   6342.304246 -13739.069030 -21762.834561   -227.174003                    
V 12  26505.118721   8249.183282   2630.378147       .058030                    
P 13   5910.136048  25802.245895   1945.526903    303.873125                    
V 13  -1255.013046   2888.495924 -32377.061068       .005191                    
P 14 -13842.728583 -16245.741343 -15764.293408    -58.507364                    
V 14  -2656.879772 -20012.016741  22646.053538       .053231                    
P 15   9704.102764 -15888.651489  18941.993238   -316.321032                    
V 15   7447.436806  22903.071865  15482.252794      -.015328                    
P 16 -24988.655487  -1269.152799   9316.053359     18.241714                    
V 16 -10479.178273  -5564.360249 -28776.881804      -.038287                    
P 17  14513.564713  16328.684734 -15169.633375     80.782265                    
V 17   2316.180021  19271.020746  22657.971334       .027587                    
P 18 -14230.688563 -16577.628967  15604.775079      8.694792                    
V 18  18980.272676   3978.562412  21500.619458       .028240                    
P 19  -9804.788063  17107.748307  17715.917273     13.159346                    
V 19  -5465.282946 -21909.002641  18449.005544      -.016213                    
P 20  -3808.931556  15245.664771 -21536.574159     73.605560                    
V 20 -26226.247002  -6962.683186   -247.877133      -.009373                    
P 21  -5012.281323 -16155.745891  20630.193975     -5.938002                    
V 21  19843.551077 -16553.709827  -8884.303900      -.022610                    
P 22 -22911.116246 -12199.272613   5996.377086    192.258308                    
V 22   8069.853035   -799.837882  29958.189719      -.008282                    
P 23  -2154.609832  23903.010555 -11071.266700    389.109825                    
V 23  -5566.765877 -13167.586567 -27737.534147      -.003597                    
P 24   9328.170663 -20971.070623  13707.339214    216.208066                    
V 24  14434.525869  -9478.054441 -24299.061904       .030932                    
P 25  -5190.354362  21623.221836  15003.841529    572.599858                    
V 25 -13267.368356  12797.744783 -23382.609872       .156384                    
P 26 -10579.750569 -22235.629209  -9851.240129     63.913939                    
V 26   -288.656012 -11964.130710  29410.767016      -.006176                    
P 27  17787.659332 -19662.654487   -660.805392     78.205868                    
V 27   2888.334484    421.569033  32078.111268       .031629                    
P 28  21519.531759  13449.651299   8802.006112    -26.218361                    
V 28 -10589.558919  -1315.061361  29061.216393       .000167                    
P 29  -5240.448849 -26055.958930   -476.671561     52.784038                    
V 29   2886.556490    120.317792 -31711.567730       .032342                    
P 30  -5652.916023 -16413.350795 -20504.643587    172.498548                    
V 30  24685.913913   5118.104627 -11042.422489       .030949                    
P 31 -19842.222511   2671.864323 -17321.203610    -64.823342                    
V 31  15129.906002 -16457.679542 -19502.011177       .002180                    
P 32 -12103.724036  10708.197163 -20638.622925    206.570839                    
V 32 -24947.504159 -10765.394001   9147.665036      -.068342                    
EOF
